NORAD_CAT_ID,OBJECT_NAME,OBJECT_TYPE,EPOCH,MEAN_MOTION,ECCENTRICITY,INCLINATION,RA_OF_ASC_NODE,ARG_OF_PERICENTER,MEAN_ANOMALY,BSTAR,MEAN_MOTION_DOT,MEAN_MOTION_DDOT,TLE_LINE0,TLE_LINE1,TLE_LINE2,SEMIMAJOR_AXIS,PERIOD,APOGEE,PERIGEE,DECAYED
51970.0,STARLINK-3677,PAYLOAD,2023-08-08 15:32:49,15.06443264,0.0001454,53.0516,308.8729,72.6255,287.4893,0.0012849,0.00018931,0.0,0 STARLINK-3677,1 51970U 22025Q   23220.64779158  .00018931  00000-0  12849-2 0  9997,2 51970  53.0516 308.8729 0001454  72.6255 287.4893 15.06443264 79723,6925.216,95.589,548.088,546.074,0.0
51970.0,STARLINK-3677,PAYLOAD,2023-08-09 09:03:45,15.06414599,0.0001382,53.0517,305.5964,84.788,275.3266,0.00030591,4.28e-05,0.0,0 STARLINK-3677,1 51970U 22025Q   23221.37760586  .00004280  00000-0  30591-3 0  9990,2 51970  53.0517 305.5964 0001382  84.7880 275.3266 15.06414599 79838,6925.304,95.591,548.126,546.212,0.0
51970.0,STARLINK-3677,PAYLOAD,2023-08-09 15:25:54,15.06405915,0.0001341,53.0519,304.4047,81.9309,278.1832,0.00025257,3.483e-05,0.0,0 STARLINK-3677,1 51970U 22025Q   23221.64299378  .00003483  00000-0  25257-3 0  9993,2 51970  53.0519 304.4047 0001341  81.9309 278.1832 15.06405915 79876,6925.33,95.592,548.124,546.267,0.0
51970.0,STARLINK-3677,PAYLOAD,2023-08-10 08:56:50,15.06397814,0.0001391,53.052,301.1285,83.6609,276.4539,0.00032953,4.63e-05,0.0,0 STARLINK-3677,1 51970U 22025Q   23222.37281228  .00004630  00000-0  32953-3 0  9995,2 51970  53.0520 301.1285 0001391  83.6609 276.4539 15.06397814 79988,6925.355,95.592,548.184,546.257,0.0
51970.0,STARLINK-3677,PAYLOAD,2023-08-10 21:41:10,15.06391494,0.0001954,53.0517,298.7433,88.9217,271.1996,4.4001e-05,3.74e-06,0.0,0 STARLINK-3677,1 51970U 22025Q   23222.90358878  .00000374  00000-0  44001-4 0  9999,2 51970  53.0517 298.7433 0001954  88.9217 271.1996 15.06391494 80066,6925.375,95.593,548.593,545.886,0.0
51970.0,STARLINK-3677,PAYLOAD,2023-08-11 12:01:00,15.06404312,0.0001237,53.0523,296.0644,86.4829,273.6301,0.000249,3.43e-05,0.0,0 STARLINK-3677,1 51970U 22025Q   23223.50070549  .00003430  00000-0  24900-3 0  9993,2 51970  53.0523 296.0644 0001237  86.4829 273.6301 15.06404312 80155,6925.335,95.592,548.057,546.344,0.0
51970.0,STARLINK-3677,PAYLOAD,2023-08-11 21:34:15,15.063912,0.0002009,53.0528,294.2788,97.7648,262.3569,-4.115e-05,-8.94e-06,0.0,0 STARLINK-3677,1 51970U 22025Q   23223.89879260 -.00000894  00000-0 -41150-4 0  9992,2 51970  53.0528 294.2788 0002009  97.7648 262.3569 15.06391200 80210,6925.376,95.593,548.632,545.849,0.0
51970.0,STARLINK-3677,PAYLOAD,2023-08-12 16:40:43,15.06407031,0.0001194,53.0518,290.7018,99.5332,260.5792,0.00061426,8.881e-05,0.0,0 STARLINK-3677,1 51970U 22025Q   23224.69494873  .00008881  00000-0  61426-3 0  9993,2 51970  53.0518 290.7018 0001194  99.5332 260.5792 15.06407031 80331,6925.327,95.592,548.019,546.365,0.0
51970.0,STARLINK-3677,PAYLOAD,2023-08-12 21:27:20,15.06401652,0.0001299,53.0524,289.8078,92.6593,267.4545,0.00042675,6.081e-05,0.0,0 STARLINK-3677,1 51970U 22025Q   23224.89399082  .00006081  00000-0  42675-3 0  9996,2 51970  53.0524 289.8078 0001299  92.6593 267.4545 15.06401652 80360,6925.343,95.592,548.108,546.309,0.0
51970.0,STARLINK-3677,PAYLOAD,2023-08-13 21:20:26,15.0639148,8.92e-05,53.052,285.3411,92.3697,267.7394,-1.1867e-05,-4.58e-06,0.0,0 STARLINK-3677,1 51970U 22025Q   23225.88919638 -.00000458  00000-0 -11867-4 0  9995,2 51970  53.0520 285.3411 0000892  92.3697 267.7394 15.06391480 80517,6925.375,95.593,547.857,546.622,0.0
51970.0,STARLINK-3677,PAYLOAD,2023-08-14 10:04:45,15.06397667,0.000115,53.0511,282.9585,84.0769,276.0351,0.00028743,4.002e-05,0.0,0 STARLINK-3677,1 51970U 22025Q   23226.41997265  .00004002  00000-0  28743-3 0  9994,2 51970  53.0511 282.9585 0001150  84.0769 276.0351 15.06397667 80595,6925.356,95.592,548.017,546.424,0.0
51970.0,STARLINK-3677,PAYLOAD,2023-08-15 14:44:27,15.0641558,0.000127,53.0507,277.5975,78.8906,281.2225,0.00074861,0.00010891,0.0,0 STARLINK-3677,1 51970U 22025Q   23227.61421222  .00010891  00000-0  74861-3 0  9997,2 51970  53.0507 277.5975 0001270  78.8906 281.2225 15.06415580 80773,6925.301,95.591,548.045,546.286,0.0
51970.0,STARLINK-3677,PAYLOAD,2023-08-16 09:50:56,15.06405926,0.0001281,53.0508,274.0229,83.0461,277.0674,0.00030566,4.275e-05,0.0,0 STARLINK-3677,1 51970U 22025Q   23228.41037500  .00004275  00000-0  30566-3 0  9991,2 51970  53.0508 274.0229 0001281  83.0461 277.0674 15.06405926 80891,6925.33,95.592,548.083,546.308,0.0
51970.0,STARLINK-3677,PAYLOAD,2023-08-17 09:44:01,15.06403905,0.000137,53.0512,269.5541,89.1375,270.9771,0.00019426,2.613e-05,0.0,0 STARLINK-3677,1 51970U 22025Q   23229.40557622  .00002613  00000-0  19426-3 0  9999,2 51970  53.0512 269.5541 0001370  89.1375 270.9771 15.06403905 81045,6925.337,95.592,548.15,546.253,0.0
51970.0,STARLINK-3677,PAYLOAD,2023-08-17 19:17:16,15.06392507,0.0002621,53.051,267.7645,78.9034,281.225,-3.5769e-05,-8.15e-06,0.0,0 STARLINK-3677,1 51970U 22025Q   23229.80366514 -.00000815  00000-0 -35769-4 0  9994,2 51970  53.0510 267.7645 0002621  78.9034 281.2250 15.06392507 81105,6925.372,95.593,549.052,545.421,0.0
51970.0,STARLINK-3677,PAYLOAD,2023-08-18 11:12:39,15.06397737,0.000133,53.0514,264.7887,90.947,269.1672,8.518e-05,9.87e-06,0.0,0 STARLINK-3677,1 51970U 22025Q   23230.46712917  .00000987  00000-0  85180-4 0  9990,2 51970  53.0514 264.7887 0001330  90.9470 269.1672 15.06397737 81202,6925.355,95.592,548.142,546.299,0.0
51970.0,STARLINK-3677,PAYLOAD,2023-08-19 14:16:50,15.06402261,0.0001337,53.0513,259.725,96.3179,263.7962,0.0002103,2.853e-05,0.0,0 STARLINK-3677,1 51970U 22025Q   23231.59502534  .00002853  00000-0  21030-3 0  9994,2 51970  53.0513 259.7250 0001337  96.3179 263.7962 15.06402261 81371,6925.342,95.592,548.133,546.281,0.0
51970.0,STARLINK-3677,PAYLOAD,2023-08-20 09:23:18,15.06396871,0.0001357,53.0514,256.1505,92.4607,267.6537,0.00012699,1.61e-05,0.0,0 STARLINK-3677,1 51970U 22025Q   23232.39119156  .00001610  00000-0  12699-3 0  9998,2 51970  53.0514 256.1505 0001357  92.4607 267.6537 15.06396871 81494,6925.358,95.592,548.163,546.283,0.0
51970.0,STARLINK-3677,PAYLOAD,2023-08-21 12:27:28,15.06404936,0.0001378,53.0522,251.0863,92.5721,267.5426,0.00017518,2.329e-05,0.0,0 STARLINK-3677,1 51970U 22025Q   23233.51908459  .00002329  00000-0  17518-3 0  9998,2 51970  53.0522 251.0863 0001378  92.5721 267.5426 15.06404936 81662,6925.333,95.592,548.153,546.244,0.0
51970.0,STARLINK-3677,PAYLOAD,2023-08-22 04:22:52,15.06400253,0.0001388,53.0525,248.1086,90.4157,269.6991,0.00011529,1.436e-05,0.0,0 STARLINK-3677,1 51970U 22025Q   23234.18255540  .00001436  00000-0  11529-3 0  9992,2 51970  53.0525 248.1086 0001388  90.4157 269.6991 15.06400253 81769,6925.348,95.592,548.174,546.252,0.0
51970.0,STARLINK-3677,PAYLOAD,2023-08-23 10:38:08,15.06396795,0.0001312,53.0531,242.4504,85.6858,274.4281,3.9327e-05,3.04e-06,0.0,0 STARLINK-3677,1 51970U 22025Q   23235.44314934  .00000304  00000-0  39327-4 0  9995,2 51970  53.0531 242.4504 0001312  85.6858 274.4281 15.06396795 81951,6925.358,95.592,548.132,546.315,0.0
51970.0,STARLINK-3677,PAYLOAD,2023-08-24 12:06:46,15.0639625,0.0001641,53.0538,237.6835,110.7497,249.3668,5.6724e-05,5.63e-06,0.0,0 STARLINK-3677,1 51970U 22025Q   23236.50470025  .00000563  00000-0  56724-4 0  9994,2 51970  53.0538 237.6835 0001641 110.7497 249.3668 15.06396250 82110,6925.36,95.592,548.362,546.089,0.0
51970.0,STARLINK-3677,PAYLOAD,2023-08-25 10:24:19,15.06399337,0.0001419,53.0534,233.514,94.9314,265.1837,0.00012995,1.655e-05,0.0,0 STARLINK-3677,1 51970U 22025Q   23237.43355569  .00001655  00000-0  12995-3 0  9996,2 51970  53.0534 233.5140 0001419  94.9314 265.1837 15.06399337 81161,6925.351,95.592,548.198,546.233,0.0
51970.0,STARLINK-3677,PAYLOAD,2023-08-25 23:08:39,15.06382058,0.000142,53.0534,231.1311,101.7967,258.3182,-1.7335e-06,-3.07e-06,0.0,0 STARLINK-3677,1 51970U 22025Q   23237.96434858 -.00000307  00000-0 -17335-5 0  9993,2 51970  53.0534 231.1311 0001420 101.7967 258.3182 15.06382058 82337,6925.404,95.593,548.252,546.285,0.0
51970.0,STARLINK-3677,PAYLOAD,2023-08-26 08:41:54,15.06383128,0.0001427,53.0536,229.3442,96.8034,263.3117,-1.6908e-05,-5.33e-06,0.0,0 STARLINK-3677,1 51970U 22025Q   23238.36243410 -.00000533  00000-0 -16908-4 0  9995,2 51970  53.0536 229.3442 0001427  96.8034 263.3117 15.06383128 81308,6925.4,95.593,548.254,546.277,0.0
51970.0,STARLINK-3677,PAYLOAD,2023-08-27 02:12:49,15.06394716,0.0001371,53.0537,226.067,100.56,259.5544,7.3029e-05,8.06e-06,0.0,0 STARLINK-3677,1 51970U 22025Q   23239.09224498  .00000806  00000-0  73029-4 0  9999,2 51970  53.0537 226.0670 0001371 100.5600 259.5544 15.06394716 82505,6925.365,95.592,548.179,546.28,0.0
51970.0,STARLINK-3677,PAYLOAD,2023-08-27 08:34:59,15.06399606,0.0001438,53.0526,224.8764,97.4409,262.6743,0.00024955,3.437e-05,0.0,0 STARLINK-3677,1 51970U 22025Q   23239.35763175  .00003437  00000-0  24955-3 0  9994,2 51970  53.0526 224.8764 0001438  97.4409 262.6743 15.06399606 81450,6925.35,95.592,548.211,546.219,0.0
51970.0,STARLINK-3677,PAYLOAD,2023-08-28 02:05:54,15.06421804,0.0001216,53.0528,221.6002,101.4251,258.6874,6.5231e-05,6.91e-06,0.0,0 STARLINK-3677,1 51970U 22025Q   23240.08743637  .00000691  00000-0  65231-4 0  9999,2 51970  53.0528 221.6002 0001216 101.4251 258.6874 15.06421804 82656,6925.282,95.591,547.989,546.305,0.0
51970.0,STARLINK-3677,PAYLOAD,2023-08-28 08:28:04,15.06422392,0.0001489,53.0522,220.4092,94.691,265.4249,0.00078377,0.00011419,0.0,0 STARLINK-3677,1 51970U 22025Q   23240.35282821  .00011419  00000-0  78377-3 0  9996,2 51970  53.0522 220.4092 0001489  94.6910 265.4249 15.06422392 81602,6925.28,95.591,548.176,546.114,0.0
51970.0,STARLINK-3677,PAYLOAD,2023-08-29 01:59:00,15.06408097,0.0001808,53.0523,217.1347,96.0897,264.0298,-5.9362e-05,-1.166e-05,0.0,0 STARLINK-3677,1 51970U 22025Q   23241.08264003 -.00001166  00000-0 -59362-4 0  9993,2 51970  53.0523 217.1347 0001808  96.0897 264.0298 15.06408097 82802,6925.324,95.592,548.441,545.937,0.0
